STARLINK-11446 [DTC]    
1 62416U 24249H   25286.54659977  .00286804  00000+0  21468-2 0  9995
2 62416  42.9966 334.1543 0003251 250.6600 109.3917 15.71010321 46348
STARLINK-11428 [DTC]    
1 62417U 24249J   25286.27116341  .00386522  00000+0  28476-2 0  9993
2 62417  42.9997 336.4206 0002238 235.3207 124.7450 15.71092602 46290
STARLINK-11447 [DTC]    
1 62418U 24249K   25286.55190253  .00252556  00000+0  19008-2 0  9999
2 62418  43.0038 334.1978 0005728 280.9302  79.0921 15.70973551 46340
STARLINK-11439 [DTC]    
1 62419U 24249L   25286.43536216  .00236158  00000+0  17850-2 0  9993
2 62419  42.9995 335.0482 0000888 266.6642  93.4124 15.70934521 46328
STARLINK-11434 [DTC]    
1 62420U 24249M   25285.57705855  .00389115  00000+0  29023-2 0  9993
2 62420  43.0001 340.6707 0001008 310.8437  49.2343 15.70789065 46188
STARLINK-11461 [DTC]    
1 62421U 24249N   25285.56642755  .00284943  00000+0  21389-2 0  9992
2 62421  43.0002 340.5853 0004821 274.1971  85.8346 15.70943369 46180
STARLINK-32692          
1 62422U 24249P   25286.12698964  .00039364  00000+0  14313-2 0  9993
2 62422  43.0039  75.3899 0001408 282.1556  77.9138 15.27603505 45154
STARLINK-32680          
1 62423U 24249Q   25286.12523856  .00048902  00000+0  17732-2 0  9997
2 62423  43.0037  67.6022 0001731 272.2385  87.8268 15.27610123 45242
STARLINK-32638          
1 62424U 24249R   25285.81373737  .00070609  00000+0  25503-2 0  9998
2 62424  43.0030  80.8257 0001806 293.9528  66.1135 15.27588128 45067
STARLINK-32283          
1 62425U 24249S   25286.56287320  .00051586  00000+0  18713-2 0  9992
2 62425  43.0053  61.4025 0001373 262.9446  97.1249 15.27575653 45356
STARLINK-32676          
1 62426U 24249T   25286.08426594  .00047508  00000+0  17243-2 0  9994
2 62426  43.0012  68.1562 0001417 267.6384  92.4305 15.27590560 45236
STARLINK-32659          
1 62427U 24249U   25285.74320442  .00028068  00000+0  10251-2 0  9994
2 62427  43.0030  69.8978 0001965 280.4510  79.6120 15.27596814 45182
STARLINK-32614          
1 62428U 24249V   25286.12313616  .00027200  00000+0  99358-3 0  9996
2 62428  43.0044  75.3728 0001205 288.0018  72.0703 15.27603610 45151
STARLINK-32418          
1 62429U 24249W   25286.37009322  .00043820  00000+0  15917-2 0  9994
2 62429  43.0037  65.9975 0001013 286.3235  73.7505 15.27596286 45284
STARLINK-32702          
1 62432U 24251A   25286.30651550  .00023559  00000+0  80506-3 0  9994
2 62432  53.1590 297.0271 0001373  85.7087 274.4070 15.30199013 45420
STARLINK-32712          
1 62433U 24251B   25286.31982275  .00037422  00000+0  12690-2 0  9999
2 62433  53.1579 299.9488 0001319  88.0344 272.0808 15.30206744 45389
STARLINK-32674          
1 62434U 24251C   25286.34715726  .00027997  00000+0  95338-3 0  9995
2 62434  53.1584 299.4122 0001391  95.7722 264.3437 15.30215607 45392
STARLINK-32711          
1 62435U 24251D   25286.31665813  .00035379  00000+0  12009-2 0  9990
2 62435  53.1588 299.9305 0001353  68.0405 292.0739 15.30199955 45383
STARLINK-32697          
1 62436U 24251E   25286.30399960  .00023655  00000+0  80807-3 0  9993
2 62436  53.1618 299.8515 0001405  88.4473 271.6689 15.30206654 45381
STARLINK-32693          
1 62437U 24251F   25286.32762391  .00026966  00000+0  92059-3 0  9998
2 62437  53.1583 297.0844 0001165 103.9909 256.1221 15.30153858 45420
STARLINK-32721          
1 62438U 24251G   25286.36192987  .00010949  00000+0  38146-3 0  9992
2 62438  53.1607 299.4984 0001956  72.0188 288.1026 15.30182554 45335
STARLINK-32709          
1 62439U 24251H   25286.46733777  .00042247  00000+0  14307-2 0  9990
2 62439  53.1582 299.4497 0001441  81.2237 278.8926 15.30192609 45408
STARLINK-32689          
1 62440U 24251J   25286.34292796  .00054247  00000+0  18305-2 0  9995
2 62440  53.1585 299.3798 0001374  90.1390 269.9769 15.30196644 45397
STARLINK-32724          
1 62441U 24251K   25286.36403326  .00011135  00000+0  38756-3 0  9993
2 62441  53.1602 299.5154 0001399  84.6412 275.4748 15.30196189 45232
STARLINK-32291          
1 62442U 24251L   25286.30715895  .00045635  00000+0  15425-2 0  9994
2 62442  53.1604 299.8683 0001420  79.8580 280.2580 15.30220632 45073
STARLINK-32736          
1 62443U 24251M   25286.31454735  .00026397  00000+0  90037-3 0  9996
2 62443  53.1585 299.9178 0001155  87.4401 272.6732 15.30193564 45228
STARLINK-32737          
1 62444U 24251N   25286.35822789  .00016181  00000+0  55704-3 0  9991
2 62444  53.1604 297.3455 0001316  87.0255 273.0896 15.30212697 45420
STARLINK-32683          
1 62445U 24251P   25286.33248611  .00025351  00000+0  86492-3 0  9993
2 62445  53.1584 300.0232 0001390  91.1241 268.9920 15.30207634 45387
STARLINK-32726          
1 62446U 24251Q   25286.36297777  .00017096  00000+0  58798-3 0  9999
2 62446  53.1606 299.5040 0001440  82.2544 277.8620 15.30202373 45083
STARLINK-32730          
1 62447U 24251R   25286.35557325  .00032922  00000+0  11170-2 0  9994
2 62447  53.1600 299.4577 0001263  98.5987 261.5157 15.30249948 45394
STARLINK-32719          
1 62448U 24251S   25286.35251425  .00015067  00000+0  51978-3 0  9999
2 62448  53.1593 300.0041 0001325  91.4246 268.6907 15.30200645 45213
STARLINK-32723          
1 62449U 24251T   25286.36508776  .00022460  00000+0  76803-3 0  9994
2 62449  53.1603 299.5192 0001276  79.0845 281.0299 15.30204548 45238
STARLINK-32722          
1 62450U 24251U   25286.35981359  .00023587  00000+0  80646-3 0  9998
2 62450  53.1603 299.4825 0001425  82.4810 277.6353 15.30179478 45020
STARLINK-32720          
1 62451U 24251V   25286.32509947  .00041292  00000+0  13986-2 0  9990
2 62451  53.1576 299.9827 0001320  85.1111 275.0040 15.30199687 45013
STARLINK-32656          
1 62452U 24251W   25286.33987164  .00018368  00000+0  63075-3 0  9996
2 62452  53.1582 300.0678 0001089  76.7142 283.3980 15.30200670 45224
STARLINK-32690          
1 62453U 24251X   25286.35664449  .00027761  00000+0  94558-3 0  9994
2 62453  53.1607 299.4656 0001277  94.3686 265.7460 15.30212179 45019
STARLINK-11518 [DTC]    
1 62462U 24254A   25286.02909973  .00364616  00000+0  27149-2 0  9999
2 62462  43.0010  33.4290 0002001  58.7218 301.3846 15.70904522 46184
STARLINK-11455 [DTC]    
1 62463U 24254B   25286.41589039  .00303485  00000+0  22829-2 0  9997
2 62463  43.0005  31.1715 0001812 195.8029 164.2783 15.70844268 46230
STARLINK-11459 [DTC]    
1 62464U 24254C   25285.66868659  .00105162  00000+0  81169-3 0  9997
2 62464  42.9993  35.0027 0001928 277.6268  82.4381 15.70869518 46113
STARLINK-11178 [DTC]    
1 62465U 24254D   25286.59071318  .00276142  00000+0  20741-2 0  9994
2 62465  43.0002  29.8927 0002588 254.5843 105.4739 15.70962549 46103
STARLINK-11506 [DTC]    
1 62466U 24254E   25285.65806781  .00135825  00000+0  10427-2 0  9993
2 62466  43.0005  34.9158 0002125 278.8835  81.1792 15.70886342 45965
STARLINK-11486 [DTC]    
1 62467U 24254F   25286.66667824  .00085959  00000+0  66785-3 0  9990
2 62467  43.0001  29.5119 0001578 272.5781 127.5380 15.70791093  6010
STARLINK-11511 [DTC]    
1 62468U 24254G   25286.57478322  .00331043  00000+0  24652-2 0  9998
2 62468  42.9999  29.7627 0001837 247.8954 112.1718 15.71002324 46265
STARLINK-11505 [DTC]    
1 62469U 24254H   25286.56415882  .00294857  00000+0  22052-2 0  9993
2 62469  42.9996  29.6768 0002982 257.4860 102.5674 15.71007654 46257
STARLINK-11497 [DTC]    
1 62470U 24254J   25286.58009232  .00314478  00000+0  23476-2 0  9998
2 62470  42.9992  29.8045 0002210 245.1273 114.9365 15.70992902 46264
STARLINK-11477 [DTC]    
1 62471U 24254K   25286.57569225  .00290555  00000+0  21865-2 0  9990
2 62471  42.9985  29.7690 0001602 263.4397  96.6288 15.70873606 46254
STARLINK-11500 [DTC]    
1 62472U 24254L   25285.79055088  .00268827  00000+0  20325-2 0  9998
2 62472  42.9990  34.1886 0001142 293.6215  66.4533 15.70827412 45612
STARLINK-11464 [DTC]    
1 62473U 24254M   25286.58540109  .00267487  00000+0  20104-2 0  9996
2 62473  43.0008  29.8453 0001746 253.4157 106.6519 15.70973974 46319
STARLINK-11502 [DTC]    
1 62474U 24254N   25286.63305536  .00334433  00000+0  25055-2 0  9992
2 62474  42.9995  29.3334 0002563 265.1730  94.8845 15.70847563 46270
STARLINK-32657          
1 62475U 24254P   25286.62735214  .00016735  00000+0  61618-3 0  9990
2 62475  43.0029 130.1991 0002054 267.0473  93.0143 15.27584022 44978
STARLINK-32734          
1 62476U 24254Q   25286.58557768  .00018854  00000+0  69268-3 0  9995
2 62476  42.9998 127.2805 0001984 274.1934  85.8691 15.27590296 45153
STARLINK-32733          
1 62477U 24254R   25286.61113185  .00030490  00000+0  11123-2 0  9997
2 62477  43.0026 126.6082 0001685 265.3859  94.6800 15.27596907 45160
STARLINK-32707          
1 62478U 24254S   25286.64071025  .00032712  00000+0  11920-2 0  9991
2 62478  43.0009 126.8258 0002034 268.6416  91.4203 15.27606722 45162
STARLINK-32705          
1 62479U 24254T   25286.59025389  .00015457  00000+0  57005-3 0  9990
2 62479  43.0031 119.5301 0001560 263.9707  96.0966 15.27579207 45085
STARLINK-32743          
1 62480U 24254U   25286.60342321  .00014697  00000+0  54256-3 0  9992
2 62480  43.0008 126.5525 0001594 257.9919 102.0754 15.27579565 45161
STARLINK-32753          
1 62481U 24254V   25286.61883879  .00008574  00000+0  32079-3 0  9998
2 62481  43.0025 126.6649 0001725 261.9872  98.0784 15.27575335 45166
STARLINK-32699          
1 62482U 24254W   25286.62092793  .00024348  00000+0  89144-3 0  9999
2 62482  43.0019 130.1486 0001804 274.5400  85.5246 15.27577814 44970
STARLINK-32713          
1 62487U 25003A   25286.58872659  .00046827  00000+0  16987-2 0  9999
2 62487  42.9979  39.7845 0000943 121.8100 238.2844 15.27613202 44158
STARLINK-32732          
1 62488U 25003B   25286.62070798  .00046630  00000+0  16941-2 0  9991
2 62488  43.0031  39.1617 0001598 279.2565  80.8106 15.27564596 44064
